ORBITAL FACTORY 2 (OF-2)
1 45113U 19071C   20243.77726735  .00001405  00000-0  54064-4 0  9990
2 45113  51.6444   4.4505 0012589 327.5485  32.4721 15.33585745 32535
M2 PATHFINDER           
1 45727U 20037E   20244.49184855 -.00000439  00000-0 -38526-4 0  9999
2 45727  97.7043  62.8657 0013936  52.0397 308.2114 14.91217649  9203
